{
  "type": "FeatureCollection",
  "features": [
    {
      "type": "Feature",
      "properties": {
        "norad_id": 24876,
        "name": "GPS BIIR-2  (PRN 13)",
        "group": "gnss",
        "lat": -20.55911399988769,
        "lon": 90.6444274984676,
        "alt_km": 20146.588778175195,
        "timestamp": "2025-12-26T03:50:12.335235+00:00",
        "meta_object_name": "GPS BIIR-2  (PRN 13)",
        "meta_object_id": "1997-035A",
        "meta_epoch": "2025-12-25T04:43:59.116800",
        "meta_mean_motion": 2.00563692,
        "meta_eccentricity": 0.0096849,
        "meta_inclination": 55.901,
        "meta_ra_of_asc_node": 105.3817,
        "meta_arg_of_pericenter": 56.9385,
        "meta_mean_anomaly": 303.9881,
        "meta_ephemeris_type": 0,
        "meta_classification_type": "U",
        "meta_norad_cat_id": 24876,
        "meta_element_set_no": 999,
        "meta_rev_at_epoch": 20846,
        "meta_bstar": 0,
        "meta_mean_motion_dot": 2.8e-07,
        "meta_mean_motion_ddot": 0,
        "tle_line1": "1 24876U 97035A   25359.19721200  .00000028  00000+0  00000+0 0  9995",
        "tle_line2": "2 24876  55.9010 105.3817 0096849  56.9385 303.9881  2.00563692208461"
      },
      "geometry": {
        "type": "Point",
        "coordinates": [
          90.6444274984676,
          -20.55911399988769
        ]
      }
    },
    {
      "type": "Feature",
      "properties": {
        "norad_id": 26360,
        "name": "GPS BIIR-4  (PRN 20)",
        "group": "gnss",
        "lat": 49.471198264373946,
        "lon": 81.1614029322914,
        "alt_km": 20279.191003736578,
        "timestamp": "2025-12-26T03:50:12.335284+00:00",
        "meta_object_name": "GPS BIIR-4  (PRN 20)",
        "meta_object_id": "2000-025A",
        "meta_epoch": "2025-12-25T13:30:32.127840",
        "meta_mean_motion": 2.00566541,
        "meta_eccentricity": 0.003889,
        "meta_inclination": 55.0528,
        "meta_ra_of_asc_node": 26.3193,
        "meta_arg_of_pericenter": 243.209,
        "meta_mean_anomaly": 113.834,
        "meta_ephemeris_type": 0,
        "meta_classification_type": "U",
        "meta_norad_cat_id": 26360,
        "meta_element_set_no": 999,
        "meta_rev_at_epoch": 18778,
        "meta_bstar": 0,
        "meta_mean_motion_dot": -5.6e-07,
        "meta_mean_motion_ddot": 0,
        "tle_line1": "1 26360U 00025A   25359.56287185 -.00000056  00000+0  00000+0 0  9990",
        "tle_line2": "2 26360  55.0528  26.3193 0038890 243.2090 113.8340  2.00566541187786"
      },
      "geometry": {
        "type": "Point",
        "coordinates": [
          81.1614029322914,
          49.471198264373946
        ]
      }
    },
    {
      "type": "Feature",
      "properties": {
        "norad_id": 26407,
        "name": "GPS BIIR-5  (PRN 22)",
        "group": "gnss",
        "lat": -54.760565803633014,
        "lon": 126.74697834656592,
        "alt_km": 19914.248986216506,
        "timestamp": "2025-12-26T03:50:12.335303+00:00",
        "meta_object_name": "GPS BIIR-5  (PRN 22)",
        "meta_object_id": "2000-040A",
        "meta_epoch": "2025-12-25T00:58:38.180352",
        "meta_mean_motion": 2.00568081,
        "meta_eccentricity": 0.01253464,
        "meta_inclination": 54.8881,
        "meta_ra_of_asc_node": 222.0798,
        "meta_arg_of_pericenter": 302.0038,
        "meta_mean_anomaly": 237.7094,
        "meta_ephemeris_type": 0,
        "meta_classification_type": "U",
        "meta_norad_cat_id": 26407,
        "meta_element_set_no": 999,
        "meta_rev_at_epoch": 18645,
        "meta_bstar": 0,
        "meta_mean_motion_dot": 6.7e-07,
        "meta_mean_motion_ddot": 0,
        "tle_line1": "1 26407U 00040A   25359.04071968  .00000067  00000+0  00000+0 0  9993",
        "tle_line2": "2 26407  54.8881 222.0798 0125346 302.0038 237.7094  2.00568081186458"
      },
      "geometry": {
        "type": "Point",
        "coordinates": [
          126.74697834656592,
          -54.760565803633014
        ]
      }
    },
    {
      "type": "Feature",
      "properties": {
        "norad_id": 27663,
        "name": "GPS BIIR-8  (PRN 16)",
        "group": "gnss",
        "lat": 34.27814784595922,
        "lon": -109.53149543380937,
        "alt_km": 19788.46335404081,
        "timestamp": "2025-12-26T03:50:12.335317+00:00",
        "meta_object_name": "GPS BIIR-8  (PRN 16)",
        "meta_object_id": "2003-005A",
        "meta_epoch": "2025-12-24T14:50:30.961824",
        "meta_mean_motion": 2.00570207,
        "meta_eccentricity": 0.01478624,
        "meta_inclination": 54.9207,
        "meta_ra_of_asc_node": 221.9058,
        "meta_arg_of_pericenter": 51.9747,
        "meta_mean_anomaly": 318.7946,
        "meta_ephemeris_type": 0,
        "meta_classification_type": "U",
        "meta_norad_cat_id": 27663,
        "meta_element_set_no": 999,
        "meta_rev_at_epoch": 16781,
        "meta_bstar": 0,
        "meta_mean_motion_dot": 6.6e-07,
        "meta_mean_motion_ddot": 0,
        "tle_line1": "1 27663U 03005A   25358.61841391  .00000066  00000+0  00000+0 0  9998",
        "tle_line2": "2 27663  54.9207 221.9058 0147862  51.9747 318.7946  2.00570207167815"
      },
      "geometry": {
        "type": "Point",
        "coordinates": [
          -109.53149543380937,
          34.27814784595922
        ]
      }
    },
    {
      "type": "Feature",
      "properties": {
        "norad_id": 28190,
        "name": "GPS BIIR-11 (PRN 19)",
        "group": "gnss",
        "lat": -18.47505489127926,
        "lon": 116.2053446375168,
        "alt_km": 19947.096459406042,
        "timestamp": "2025-12-26T03:50:12.335347+00:00",
        "meta_object_name": "GPS BIIR-11 (PRN 19)",
        "meta_object_id": "2004-009A",
        "meta_epoch": "2025-12-25T00:56:53.599200",
        "meta_mean_motion": 2.00560295,
        "meta_eccentricity": 0.01085715,
        "meta_inclination": 54.9745,
        "meta_ra_of_asc_node": 282.7233,
        "meta_arg_of_pericenter": 167.849,
        "meta_mean_anomaly": 305.251,
        "meta_ephemeris_type": 0,
        "meta_classification_type": "U",
        "meta_norad_cat_id": 28190,
        "meta_element_set_no": 999,
        "meta_rev_at_epoch": 15945,
        "meta_bstar": 0,
        "meta_mean_motion_dot": -2.6e-07,
        "meta_mean_motion_ddot": 0,
        "tle_line1": "1 28190U 04009A   25359.03950925 -.00000026  00000+0  00000+0 0  9997",
        "tle_line2": "2 28190  54.9745 282.7233 0108571 167.8490 305.2510  2.00560295159459"
      },
      "geometry": {
        "type": "Point",
        "coordinates": [
          116.2053446375168,
          -18.47505489127926
        ]
      }
    },
    {
      "type": "Feature",
      "properties": {
        "norad_id": 28474,
        "name": "GPS BIIR-13 (PRN 02)",
        "group": "gnss",
        "lat": -54.25254803602728,
        "lon": -133.46661839866013,
        "alt_km": 19882.724242058805,
        "timestamp": "2025-12-26T03:50:12.335361+00:00",
        "meta_object_name": "GPS BIIR-13 (PRN 02)",
        "meta_object_id": "2004-045A",
        "meta_epoch": "2025-12-25T06:51:33.526944",
        "meta_mean_motion": 2.00570039,
        "meta_eccentricity": 0.0170989,
        "meta_inclination": 55.2344,
        "meta_ra_of_asc_node": 331.9013,
        "meta_arg_of_pericenter": 309.8108,
        "meta_mean_anomaly": 41.6127,
        "meta_ephemeris_type": 0,
        "meta_classification_type": "U",
        "meta_norad_cat_id": 28474,
        "meta_element_set_no": 999,
        "meta_rev_at_epoch": 15493,
        "meta_bstar": 0,
        "meta_mean_motion_dot": -5.9e-07,
        "meta_mean_motion_ddot": 0,
        "tle_line1": "1 28474U 04045A   25359.28580471 -.00000059  00000+0  00000+0 0  9990",
        "tle_line2": "2 28474  55.2344 331.9013 0170989 309.8108  41.6127  2.00570039154932"
      },
      "geometry": {
        "type": "Point",
        "coordinates": [
          -133.46661839866013,
          -54.25254803602728
        ]
      }
    },
    {
      "type": "Feature",
      "properties": {
        "norad_id": 28874,
        "name": "GPS BIIRM-1 (PRN 17)",
        "group": "gnss",
        "lat": -32.11602478436494,
        "lon": 126.18833519342421,
        "alt_km": 20082.077588148408,
        "timestamp": "2025-12-26T03:50:12.335374+00:00",
        "meta_object_name": "GPS BIIRM-1 (PRN 17)",
        "meta_object_id": "2005-038A",
        "meta_epoch": "2025-12-24T20:45:31.120992",
        "meta_mean_motion": 2.00577585,
        "meta_eccentricity": 0.0131256,
        "meta_inclination": 55.0211,
        "meta_ra_of_asc_node": 280.2128,
        "meta_arg_of_pericenter": 293.8377,
        "meta_mean_anomaly": 72.9738,
        "meta_ephemeris_type": 0,
        "meta_classification_type": "U",
        "meta_norad_cat_id": 28874,
        "meta_element_set_no": 999,
        "meta_rev_at_epoch": 14834,
        "meta_bstar": 0,
        "meta_mean_motion_dot": -2.3e-07,
        "meta_mean_motion_ddot": 0,
        "tle_line1": "1 28874U 05038A   25358.86494353 -.00000023  00000+0  00000+0 0  9994",
        "tle_line2": "2 28874  55.0211 280.2128 0131256 293.8377  72.9738  2.00577585148340"
      },
      "geometry": {
        "type": "Point",
        "coordinates": [
          126.18833519342421,
          -32.11602478436494
        ]
      }
    }
  ]
}